ONEWEB-0504             
1 54122U 22138K   25020.60673333  .00000004  00000+0 -21105-4 0  9997
2 54122  87.9143  46.8645 0001421  95.8725 264.2569 13.19727302109228
ONEWEB-0505             
1 54123U 22138L   25020.60356777  .00000032  00000+0  47477-4 0  9998
2 54123  87.9143  46.8571 0001347 111.8294 248.2982 13.19727508109201
ONEWEB-0506             
1 54124U 22138M   25020.57829535 -.00000094  00000+0 -26628-3 0  9996
2 54124  87.9143  46.8589 0001654  99.7065 260.4255 13.19726630109194
ONEWEB-0507             
1 54125U 22138N   25020.59882827 -.00000034  00000+0 -11673-3 0  9990
2 54125  87.9152  46.8946 0001738 102.0425 258.0902 13.19727079109249
ONEWEB-0508             
1 54126U 22138P   25020.59567393 -.00000052  00000+0 -16278-3 0  9995
2 54126  87.9148  46.8825 0001770 107.9427 252.1899 13.19723602109229
ONEWEB-0509             
1 54127U 22138Q   25020.57041323  .00000020  00000+0  17796-4 0  9994
2 54127  87.9142  46.8597 0001709  97.2681 262.8646 13.19727283109198
ONEWEB-0510             
1 54128U 22138R   25020.48528022  .00000016  00000+0  73539-5 0  9994
2 54128  87.9257  16.4389 0002084  88.1914 271.9458 13.20773886111606
ONEWEB-0511             
1 54129U 22138S   25020.56724103 -.00000277  00000+0 -72312-3 0  9999
2 54129  87.9142  46.8649 0001508  86.1227 274.0078 13.19724960109225
